{"type":"FeatureCollection","features":[{"type":"Feature","geometry":{"type":"Polygon","coordinates":[[[12.9919,52.3044],[12.9919,52.5472],[12.9759,52.5472],[12.9759,52.79],[12.96,52.79],[12.96,52.7997],[13.1674,52.7997],[13.1674,52.8094],[13.5185,52.8094],[13.5185,52.8191],[13.8057,52.8191],[13.8057,52.6346],[13.8217,52.6346],[13.8217,52.4501],[13.8376,52.4501],[13.8376,52.3044],[13.7898,52.3044],[13.7898,52.2947],[13.4547,52.2947],[13.4547,52.285],[13.0876,52.285],[13.0876,52.2752],[13.0079,52.2752],[13.0079,52.3044],[12.9919,52.3044]]]},"properties":{"slug":"berlin","n_px":2817,"halos":[{"type":"Polygon","coordinates":[[[12.9799,52.2924],[12.9799,52.5352],[12.9639,52.5352],[12.9639,52.778],[12.948,52.778],[12.948,52.8117],[13.1554,52.8117],[13.1554,52.8214],[13.5065,52.8214],[13.5065,52.8311],[13.8177,52.8311],[13.8177,52.6466],[13.8337,52.6466],[13.8337,52.4621],[13.8496,52.4621],[13.8496,52.2924],[13.8018,52.2924],[13.8018,52.2827],[13.4667,52.2827],[13.4667,52.273],[13.0996,52.273],[13.0996,52.2632],[12.9959,52.2632],[12.9959,52.2924],[12.9799,52.2924]]]},{"type":"Polygon","coordinates":[[[12.9459,52.76],[12.93,52.76],[12.93,52.8297],[13.8357,52.8491],[13.8517,52.4801],[13.8676,52.4801],[13.8676,52.2744],[13.8198,52.2744],[13.8198,52.2647],[12.9779,52.2452],[12.9779,52.2744],[12.9619,52.2744],[12.9619,52.5172],[12.9459,52.5172],[12.9459,52.76]]]},{"type":"Polygon","coordinates":[[[12.9109,52.725],[12.895,52.725],[12.895,52.8647],[13.8707,52.8841],[13.8867,52.5151],[13.9026,52.5151],[13.9026,52.2394],[12.9429,52.2102],[12.9429,52.2394],[12.9269,52.2394],[12.9269,52.4822],[12.9109,52.4822],[12.9109,52.725]]]},{"type":"Polygon","coordinates":[[[12.8829,52.1502],[12.835,52.9247],[13.9307,52.9441],[13.9626,52.1794],[12.8829,52.1502]]]}]}},{"type":"Feature","geometry":{"type":"MultiPolygon","coordinates":[[[[9.7021,53.2459],[9.7021,53.4969],[9.7178,53.4969],[9.7178,53.5155],[9.7335,53.5155],[9.7335,53.5434],[9.7492,53.5434],[9.7492,53.5527],[9.7648,53.5527],[9.7648,53.5341],[9.7805,53.5341],[9.7805,53.5434],[9.7962,53.5434],[9.7962,53.5341],[9.8276,53.5341],[9.8276,53.562],[9.7805,53.562],[9.7805,53.5899],[9.7962,53.5899],[9.7962,53.6085],[9.8119,53.6085],[9.8119,53.655],[9.8276,53.655],[9.8276,53.6457],[9.8432,53.6457],[9.8432,53.748],[10.3449,53.748],[10.3449,53.3947],[10.3606,53.3947],[10.3606,53.2459],[9.7021,53.2459]]],[[[9.7021,53.6178],[9.7021,53.748],[9.7962,53.748],[9.7962,53.6829],[9.7805,53.6829],[9.7805,53.6736],[9.7648,53.6736],[9.7648,53.6457],[9.7492,53.6457],[9.7492,53.655],[9.7335,53.655],[9.7335,53.6271],[9.7178,53.6271],[9.7178,53.6178],[9.7021,53.6178]]]]},"properties":{"slug":"hamburg","n_px":2114,"halos":[{"type":"MultiPolygon","coordinates":[[[[9.6901,53.2339],[9.6901,53.5089],[9.7058,53.5089],[9.7058,53.5275],[9.7215,53.5275],[9.7215,53.5554],[9.7372,53.5554],[9.7372,53.5647],[9.7685,53.5647],[9.7685,53.6019],[9.7842,53.6019],[9.7842,53.6205],[9.7999,53.6205],[9.7999,53.667],[9.8312,53.667],[9.8312,53.76],[10.3569,53.76],[10.3569,53.4067],[10.3726,53.4067],[10.3726,53.2339],[9.6901,53.2339]],[[9.8156,53.55],[9.8082,53.5461],[9.8156,53.5461],[9.8156,53.55]]],[[[9.6901,53.6058],[9.6901,53.76],[9.8082,53.76],[9.8082,53.6709],[9.7925,53.6709],[9.7925,53.6616],[9.7768,53.6616],[9.7768,53.6337],[9.7455,53.6337],[9.7455,53.6151],[9.7298,53.6151],[9.7298,53.6058],[9.6901,53.6058]]]]},{"type":"Polygon","coordinates":[[[9.6721,53.2159],[9.6721,53.5269],[9.7035,53.5455],[9.7035,53.5734],[9.7505,53.5827],[9.7505,53.5971],[9.7478,53.5878],[9.6721,53.5878],[9.6721,53.778],[10.3749,53.778],[10.3749,53.4247],[10.3906,53.4247],[10.3906,53.2159],[9.6721,53.2159]]]},{"type":"Polygon","coordinates":[[[9.6371,53.1809],[9.6371,53.813],[10.4099,53.813],[10.4256,53.1809],[9.6371,53.1809]]]},{"type":"Polygon","coordinates":[[[9.5771,53.1209],[9.5771,53.873],[10.4699,53.873],[10.4856,53.1209],[9.5771,53.1209]]]}]}},{"type":"Feature","geometry":{"type":"Polygon","coordinates":[[[11.0914,47.898],[11.0914,48.4664],[11.2194,48.4664],[11.2194,48.4758],[11.9023,48.4758],[11.9023,48.4853],[11.945,48.4853],[11.945,48.4285],[11.9592,48.4285],[11.9592,48.0685],[11.9734,48.0685],[11.9734,47.8317],[11.7885,47.8317],[11.7885,47.8223],[11.1056,47.8223],[11.1056,47.898],[11.0914,47.898]]]},"properties":{"slug":"munich","n_px":4203,"halos":[{"type":"Polygon","coordinates":[[[11.0794,47.886],[11.0794,48.4784],[11.2074,48.4784],[11.2074,48.4878],[11.8903,48.4878],[11.8903,48.4973],[11.957,48.4973],[11.957,48.4405],[11.9712,48.4405],[11.9712,48.0805],[11.9854,48.0805],[11.9854,47.8197],[11.8005,47.8197],[11.8005,47.8103],[11.0936,47.8103],[11.0936,47.886],[11.0794,47.886]]]},{"type":"Polygon","coordinates":[[[11.0614,47.868],[11.0614,48.4964],[11.975,48.5153],[11.975,48.4585],[11.9892,48.4585],[12.0034,47.8017],[11.0756,47.7923],[11.0756,47.868],[11.0614,47.868]]]},{"type":"Polygon","coordinates":[[[11.0264,47.833],[11.0264,48.5314],[12.01,48.5503],[12.01,48.4935],[12.0242,48.4935],[12.0242,48.1335],[12.0384,48.1335],[12.0384,47.7667],[11.0406,47.7573],[11.0406,47.833],[11.0264,47.833]]]},{"type":"Polygon","coordinates":[[[10.9806,47.6973],[10.9664,48.5914],[12.07,48.6103],[12.0984,47.7067],[10.9806,47.6973]]]}]}},{"type":"Feature","geometry":{"type":"Polygon","coordinates":[[[6.7317,50.7548],[6.7317,50.947],[6.7472,50.947],[6.7472,51.1105],[6.9789,51.1105],[6.9789,51.1008],[7.2261,51.1008],[7.2261,51.0624],[7.2107,51.0624],[7.2107,50.8028],[7.1952,50.8028],[7.1952,50.7355],[7.118,50.7355],[7.118,50.7452],[6.7472,50.7452],[6.7472,50.7548],[6.7317,50.7548]]]},"properties":{"slug":"cologne","n_px":1148,"halos":[{"type":"Polygon","coordinates":[[[6.7197,50.7428],[6.7197,50.959],[6.7352,50.959],[6.7352,51.1225],[6.9909,51.1225],[6.9909,51.1128],[7.2381,51.1128],[7.2381,51.0504],[7.2227,51.0504],[7.2227,50.7908],[7.2072,50.7908],[7.2072,50.7235],[7.106,50.7235],[7.106,50.7332],[6.7352,50.7332],[6.7352,50.7428],[6.7197,50.7428]]]},{"type":"Polygon","coordinates":[[[6.7017,50.7248],[6.7017,50.977],[6.7172,50.977],[6.7172,51.1405],[7.2561,51.1308],[7.2561,51.0324],[7.2407,51.0324],[7.2407,50.7728],[7.2252,50.7728],[7.2252,50.7055],[6.7172,50.7152],[6.7172,50.7248],[6.7017,50.7248]]]},{"type":"Polygon","coordinates":[[[6.6667,50.6898],[6.6822,51.1755],[7.2911,51.1658],[7.2602,50.6705],[6.6667,50.6898]]]},{"type":"Polygon","coordinates":[[[6.6067,50.6298],[6.6222,51.2355],[7.3511,51.2258],[7.3202,50.6105],[6.6067,50.6298]]]}]}},{"type":"Feature","geometry":{"type":"Polygon","coordinates":[[[7.2885,51.4018],[7.2885,51.6408],[7.3041,51.6408],[7.3041,51.7077],[7.5527,51.7077],[7.5527,51.6982],[7.708,51.6982],[7.708,51.4018],[7.6925,51.4018],[7.6925,51.3923],[7.4284,51.3923],[7.4284,51.4018],[7.2885,51.4018]]]},"properties":{"slug":"dortmund","n_px":864,"halos":[{"type":"Polygon","coordinates":[[[7.2765,51.3898],[7.2765,51.6528],[7.2921,51.6528],[7.2921,51.7197],[7.5647,51.7197],[7.5647,51.7102],[7.72,51.7102],[7.72,51.3898],[7.7045,51.3898],[7.7045,51.3803],[7.4164,51.3803],[7.4164,51.3898],[7.2765,51.3898]]]},{"type":"Polygon","coordinates":[[[7.2585,51.3718],[7.2585,51.6708],[7.2741,51.6708],[7.2741,51.7377],[7.738,51.7282],[7.738,51.3718],[7.7225,51.3718],[7.7225,51.3623],[7.2585,51.3718]]]},{"type":"Polygon","coordinates":[[[7.2235,51.3368],[7.2235,51.7058],[7.2391,51.7058],[7.2391,51.7727],[7.773,51.7632],[7.773,51.3368],[7.2235,51.3368]]]},{"type":"Polygon","coordinates":[[[7.1635,51.2768],[7.1791,51.8327],[7.833,51.8232],[7.833,51.2768],[7.1635,51.2768]]]}]}},{"type":"Feature","geometry":{"type":"Polygon","coordinates":[[[6.6405,51.1054],[6.6405,51.3172],[6.6561,51.3172],[6.6561,51.3557],[6.9213,51.3557],[6.9213,51.3461],[6.9681,51.3461],[6.9681,51.2594],[6.9525,51.2594],[6.9525,51.0957],[6.6249,51.0957],[6.6249,51.1054],[6.6405,51.1054]]]},"properties":{"slug":"dusseldorf","n_px":544,"halos":[{"type":"Polygon","coordinates":[[[6.6285,51.1174],[6.6285,51.3292],[6.6441,51.3292],[6.6441,51.3677],[6.9333,51.3677],[6.9333,51.3581],[6.9801,51.3581],[6.9801,51.2474],[6.9645,51.2474],[6.9645,51.0837],[6.6129,51.0837],[6.6129,51.1174],[6.6285,51.1174]]]},{"type":"Polygon","coordinates":[[[6.6105,51.1354],[6.6105,51.3472],[6.6261,51.3472],[6.6261,51.3857],[6.9513,51.3857],[6.9513,51.3761],[6.9981,51.3761],[6.9981,51.2294],[6.9825,51.2294],[6.9825,51.0657],[6.5949,51.0657],[6.5949,51.1354],[6.6105,51.1354]]]},{"type":"Polygon","coordinates":[[[6.5755,51.1704],[6.5755,51.3822],[6.5911,51.3822],[6.5911,51.4207],[7.0331,51.4111],[7.0175,51.0307],[6.5599,51.0307],[6.5599,51.1704],[6.5755,51.1704]]]},{"type":"Polygon","coordinates":[[[6.4999,50.9707],[6.5311,51.4807],[7.0931,51.4711],[7.0775,50.9707],[6.4999,50.9707]]]}]}},{"type":"Feature","geometry":{"type":"Polygon","coordinates":[[[8.3848,49.9504],[8.3848,50.1206],[8.3996,50.1206],[8.3996,50.357],[8.7248,50.357],[8.7248,50.3476],[8.9612,50.3476],[8.9612,50.1206],[8.9464,50.1206],[8.9464,49.9409],[8.7395,49.9409],[8.7395,49.9504],[8.3848,49.9504]]]},"properties":{"slug":"frankfurt","n_px":1632,"halos":[{"type":"Polygon","coordinates":[[[8.3728,49.9384],[8.3728,50.1326],[8.3876,50.1326],[8.3876,50.369],[8.7368,50.369],[8.7368,50.3596],[8.9732,50.3596],[8.9732,50.1086],[8.9584,50.1086],[8.9584,49.9289],[8.7275,49.9289],[8.7275,49.9384],[8.3728,49.9384]]]},{"type":"Polygon","coordinates":[[[8.3548,49.9204],[8.3696,50.387],[8.9912,50.3776],[8.9912,50.0906],[8.9764,50.0906],[8.9764,49.9109],[8.3548,49.9204]]]},{"type":"Polygon","coordinates":[[[8.3198,49.8854],[8.3346,50.422],[9.0262,50.4126],[9.0114,49.8759],[8.3198,49.8854]]]},{"type":"Polygon","coordinates":[[[8.2598,49.8254],[8.2746,50.482],[9.0862,50.4726],[9.0714,49.8159],[8.2598,49.8254]]]}]}},{"type":"Feature","geometry":{"type":"Polygon","coordinates":[[[8.9413,48.5975],[8.9413,48.8236],[8.9555,48.8236],[8.9555,48.8989],[9.4528,48.8989],[9.4528,48.5975],[8.9413,48.5975]]]},"properties":{"slug":"stuttgart","n_px":1144,"halos":[{"type":"Polygon","coordinates":[[[8.9293,48.5855],[8.9293,48.8356],[8.9435,48.8356],[8.9435,48.9109],[9.4648,48.9109],[9.4648,48.5855],[8.9293,48.5855]]]},{"type":"Polygon","coordinates":[[[8.9113,48.5675],[8.9113,48.8536],[8.9255,48.8536],[8.9255,48.9289],[9.4828,48.9289],[9.4828,48.5675],[8.9113,48.5675]]]},{"type":"Polygon","coordinates":[[[8.8763,48.5325],[8.8905,48.9639],[9.5178,48.9639],[9.5178,48.5325],[8.8763,48.5325]]]},{"type":"Polygon","coordinates":[[[8.8163,48.4725],[8.8305,49.0239],[9.5778,49.0239],[9.5778,48.4725],[8.8163,48.4725]]]}]}},{"type":"Feature","geometry":{"type":"Polygon","coordinates":[[[20.645,51.845],[20.645,52.605],[21.355,52.605],[21.355,51.845],[20.645,51.845]]]},"properties":{"slug":"warsaw","n_px":5396,"halos":[{"type":"Polygon","coordinates":[[[20.633,51.833],[20.633,52.617],[21.367,52.617],[21.367,51.833],[20.633,51.833]]]},{"type":"Polygon","coordinates":[[[20.615,51.815],[20.615,52.635],[21.385,52.635],[21.385,51.815],[20.615,51.815]]]},{"type":"Polygon","coordinates":[[[20.58,51.78],[20.58,52.67],[21.42,52.67],[21.42,51.78],[20.58,51.78]]]},{"type":"Polygon","coordinates":[[[20.52,51.72],[20.52,52.73],[21.48,52.73],[21.48,51.72],[20.52,51.72]]]}]}},{"type":"Feature","geometry":{"type":"Polygon","coordinates":[[[25.745,44.095],[25.745,44.805],[26.455,44.805],[26.455,44.095],[25.745,44.095]]]},"properties":{"slug":"bucharest","n_px":5041,"halos":[{"type":"Polygon","coordinates":[[[25.733,44.083],[25.733,44.817],[26.467,44.817],[26.467,44.083],[25.733,44.083]]]},{"type":"Polygon","coordinates":[[[25.715,44.065],[25.715,44.835],[26.485,44.835],[26.485,44.065],[25.715,44.065]]]},{"type":"Polygon","coordinates":[[[25.68,44.03],[25.68,44.87],[26.52,44.87],[26.52,44.03],[25.68,44.03]]]},{"type":"Polygon","coordinates":[[[25.62,43.97],[25.62,44.93],[26.58,44.93],[26.58,43.97],[25.62,43.97]]]}]}},{"type":"Feature","geometry":{"type":"Polygon","coordinates":[[[-47.055,-24.055],[-47.055,-23.195],[-46.295,-23.195],[-46.295,-23.975],[-46.375,-23.975],[-46.375,-24.025],[-46.525,-24.025],[-46.525,-24.055],[-47.055,-24.055]]]},"properties":{"slug":"sao_paulo","n_px":6427,"halos":[{"type":"Polygon","coordinates":[[[-47.067,-24.067],[-47.067,-23.183],[-46.283,-23.183],[-46.283,-23.987],[-46.363,-23.987],[-46.363,-24.037],[-46.513,-24.037],[-46.513,-24.067],[-47.067,-24.067]]]},{"type":"Polygon","coordinates":[[[-47.085,-24.085],[-47.085,-23.165],[-46.265,-23.165],[-46.265,-24.005],[-46.345,-24.005],[-46.345,-24.055],[-46.495,-24.055],[-46.495,-24.085],[-47.085,-24.085]]]},{"type":"Polygon","coordinates":[[[-47.12,-24.12],[-47.12,-23.13],[-46.23,-23.13],[-46.23,-24.04],[-46.31,-24.04],[-46.31,-24.09],[-46.46,-24.09],[-46.46,-24.12],[-47.12,-24.12]]]},{"type":"Polygon","coordinates":[[[-47.18,-24.18],[-47.18,-23.07],[-46.17,-23.07],[-46.17,-24.1],[-46.25,-24.1],[-46.25,-24.15],[-46.4,-24.15],[-46.4,-24.18],[-47.18,-24.18]]]}]}},{"type":"Feature","geometry":{"type":"MultiPolygon","coordinates":[[[[-58.755,-34.955],[-58.755,-34.245],[-58.425,-34.245],[-58.425,-34.275],[-58.525,-34.275],[-58.525,-34.375],[-58.575,-34.375],[-58.575,-34.425],[-58.475,-34.425],[-58.475,-34.525],[-58.375,-34.525],[-58.375,-34.625],[-58.275,-34.625],[-58.275,-34.675],[-58.225,-34.675],[-58.225,-34.775],[-58.125,-34.775],[-58.125,-34.725],[-58.075,-34.725],[-58.075,-34.775],[-57.945,-34.775],[-57.945,-34.955],[-58.755,-34.955]],[[-58.475,-34.525],[-58.525,-34.525],[-58.525,-34.575],[-58.475,-34.575],[-58.475,-34.525]]],[[[-58.125,-34.245],[-57.945,-34.245],[-57.945,-34.325],[-58.025,-34.325],[-58.025,-34.275],[-58.125,-34.275],[-58.125,-34.245]]]]},"properties":{"slug":"buenos_aires","n_px":3401,"halos":[{"type":"MultiPolygon","coordinates":[[[[-58.767,-34.967],[-58.767,-34.233],[-58.413,-34.233],[-58.413,-34.287],[-58.513,-34.287],[-58.513,-34.387],[-58.563,-34.387],[-58.563,-34.413],[-58.463,-34.413],[-58.463,-34.513],[-58.363,-34.513],[-58.363,-34.613],[-58.263,-34.613],[-58.263,-34.663],[-58.213,-34.663],[-58.213,-34.763],[-58.137,-34.763],[-58.137,-34.713],[-58.063,-34.713],[-58.063,-34.763],[-57.933,-34.763],[-57.933,-34.967],[-58.767,-34.967]],[[-58.487,-34.537],[-58.513,-34.537],[-58.513,-34.563],[-58.487,-34.563],[-58.487,-34.537]]],[[[-58.137,-34.233],[-57.933,-34.233],[-57.933,-34.337],[-58.037,-34.337],[-58.037,-34.287],[-58.137,-34.287],[-58.137,-34.233]]]]},{"type":"MultiPolygon","coordinates":[[[[-58.785,-34.985],[-58.785,-34.215],[-58.395,-34.215],[-58.395,-34.305],[-58.495,-34.305],[-58.495,-34.395],[-58.445,-34.395],[-58.445,-34.495],[-58.345,-34.495],[-58.345,-34.595],[-58.245,-34.595],[-58.245,-34.645],[-58.195,-34.645],[-58.195,-34.745],[-58.155,-34.745],[-58.155,-34.695],[-58.045,-34.695],[-58.045,-34.745],[-57.915,-34.745],[-57.915,-34.985],[-58.785,-34.985]]],[[[-58.155,-34.215],[-57.915,-34.215],[-57.915,-34.355],[-58.055,-34.355],[-58.055,-34.305],[-58.155,-34.305],[-58.155,-34.215]]]]},{"type":"MultiPolygon","coordinates":[[[[-58.82,-35.02],[-58.82,-34.18],[-58.36,-34.18],[-58.36,-34.34],[-58.46,-34.34],[-58.46,-34.36],[-58.41,-34.36],[-58.41,-34.46],[-58.31,-34.46],[-58.31,-34.56],[-58.21,-34.56],[-58.21,-34.61],[-58.16,-34.61],[-58.16,-34.66],[-58.01,-34.66],[-58.01,-34.71],[-57.88,-34.71],[-57.88,-35.02],[-58.82,-35.02]]],[[[-58.19,-34.18],[-57.88,-34.18],[-57.88,-34.39],[-58.09,-34.39],[-58.09,-34.34],[-58.19,-34.34],[-58.19,-34.18]]]]},{"type":"Polygon","coordinates":[[[-58.88,-35.08],[-58.88,-34.12],[-58.3,-34.12],[-58.3,-34.4],[-58.25,-34.4],[-58.25,-34.12],[-57.82,-34.12],[-57.82,-34.45],[-58.15,-34.45],[-58.15,-34.4],[-58.25,-34.4],[-58.25,-34.5],[-58.15,-34.5],[-58.15,-34.55],[-58.1,-34.55],[-58.1,-34.6],[-57.95,-34.6],[-57.95,-34.65],[-57.82,-34.65],[-57.82,-35.08],[-58.88,-35.08]]]}]}},{"type":"Feature","geometry":{"type":"Polygon","coordinates":[[[27.695,-26.605],[27.695,-25.845],[28.455,-25.845],[28.455,-26.605],[27.695,-26.605]]]},"properties":{"slug":"johannesburg","n_px":5776,"halos":[{"type":"Polygon","coordinates":[[[27.683,-26.617],[27.683,-25.833],[28.467,-25.833],[28.467,-26.617],[27.683,-26.617]]]},{"type":"Polygon","coordinates":[[[27.665,-26.635],[27.665,-25.815],[28.485,-25.815],[28.485,-26.635],[27.665,-26.635]]]},{"type":"Polygon","coordinates":[[[27.63,-26.67],[27.63,-25.78],[28.52,-25.78],[28.52,-26.67],[27.63,-26.67]]]},{"type":"Polygon","coordinates":[[[27.57,-26.73],[27.57,-25.72],[28.58,-25.72],[28.58,-26.73],[27.57,-26.73]]]}]}},{"type":"Feature","geometry":{"type":"Polygon","coordinates":[[[2.945,6.375],[2.945,6.905],[3.755,6.905],[3.755,6.425],[3.175,6.425],[3.175,6.375],[2.945,6.375]]]},"properties":{"slug":"lagos","n_px":4003,"halos":[{"type":"Polygon","coordinates":[[[2.933,6.363],[2.933,6.917],[3.767,6.917],[3.767,6.413],[3.187,6.413],[3.187,6.363],[2.933,6.363]]]},{"type":"Polygon","coordinates":[[[2.915,6.345],[2.915,6.935],[3.785,6.935],[3.785,6.395],[3.205,6.395],[3.205,6.345],[2.915,6.345]]]},{"type":"Polygon","coordinates":[[[2.88,6.31],[2.88,6.97],[3.82,6.97],[3.82,6.36],[3.24,6.36],[3.24,6.31],[2.88,6.31]]]},{"type":"Polygon","coordinates":[[[2.82,6.25],[2.82,7.03],[3.88,7.03],[3.88,6.3],[3.3,6.3],[3.3,6.25],[2.82,6.25]]]}]}},{"type":"Feature","geometry":{"type":"Polygon","coordinates":[[[30.845,29.695],[30.845,30.455],[31.655,30.455],[31.655,29.695],[30.845,29.695]]]},"properties":{"slug":"cairo","n_px":6156,"halos":[{"type":"Polygon","coordinates":[[[30.833,29.683],[30.833,30.467],[31.667,30.467],[31.667,29.683],[30.833,29.683]]]},{"type":"Polygon","coordinates":[[[30.815,29.665],[30.815,30.485],[31.685,30.485],[31.685,29.665],[30.815,29.665]]]},{"type":"Polygon","coordinates":[[[30.78,29.63],[30.78,30.52],[31.72,30.52],[31.72,29.63],[30.78,29.63]]]},{"type":"Polygon","coordinates":[[[30.72,29.57],[30.72,30.58],[31.78,30.58],[31.78,29.57],[30.72,29.57]]]}]}},{"type":"Feature","geometry":{"type":"Polygon","coordinates":[[[46.345,24.345],[46.345,25.055],[47.105,25.055],[47.105,24.345],[46.345,24.345]]]},"properties":{"slug":"riyadh","n_px":5396,"halos":[{"type":"Polygon","coordinates":[[[46.333,24.333],[46.333,25.067],[47.117,25.067],[47.117,24.333],[46.333,24.333]]]},{"type":"Polygon","coordinates":[[[46.315,24.315],[46.315,25.085],[47.135,25.085],[47.135,24.315],[46.315,24.315]]]},{"type":"Polygon","coordinates":[[[46.28,24.28],[46.28,25.12],[47.17,25.12],[47.17,24.28],[46.28,24.28]]]},{"type":"Polygon","coordinates":[[[46.22,24.22],[46.22,25.18],[47.23,25.18],[47.23,24.22],[46.22,24.22]]]}]}},{"type":"Feature","geometry":{"type":"Polygon","coordinates":[[[51.045,35.395],[51.045,36.055],[51.805,36.055],[51.805,35.395],[51.045,35.395]]]},"properties":{"slug":"tehran","n_px":5016,"halos":[{"type":"Polygon","coordinates":[[[51.033,35.383],[51.033,36.067],[51.817,36.067],[51.817,35.383],[51.033,35.383]]]},{"type":"Polygon","coordinates":[[[51.015,35.365],[51.015,36.085],[51.835,36.085],[51.835,35.365],[51.015,35.365]]]},{"type":"Polygon","coordinates":[[[50.98,35.33],[50.98,36.12],[51.87,36.12],[51.87,35.33],[50.98,35.33]]]},{"type":"Polygon","coordinates":[[[50.92,35.27],[50.92,36.18],[51.93,36.18],[51.93,35.27],[50.92,35.27]]]}]}},{"type":"Feature","geometry":{"type":"Polygon","coordinates":[[[32.145,15.195],[32.145,15.955],[32.905,15.955],[32.905,15.195],[32.145,15.195]]]},"properties":{"slug":"khartoum","n_px":5776,"halos":[{"type":"Polygon","coordinates":[[[32.133,15.183],[32.133,15.967],[32.917,15.967],[32.917,15.183],[32.133,15.183]]]},{"type":"Polygon","coordinates":[[[32.115,15.165],[32.115,15.985],[32.935,15.985],[32.935,15.165],[32.115,15.165]]]},{"type":"Polygon","coordinates":[[[32.08,15.13],[32.08,16.02],[32.97,16.02],[32.97,15.13],[32.08,15.13]]]},{"type":"Polygon","coordinates":[[[32.02,15.07],[32.02,16.08],[33.03,16.08],[33.03,15.07],[32.02,15.07]]]}]}},{"type":"Feature","geometry":{"type":"Polygon","coordinates":[[[-7.955,33.195],[-7.955,33.475],[-7.925,33.475],[-7.925,33.575],[-7.725,33.575],[-7.725,33.625],[-7.525,33.625],[-7.525,33.675],[-7.425,33.675],[-7.425,33.725],[-7.325,33.725],[-7.325,33.775],[-7.275,33.775],[-7.275,33.825],[-7.195,33.825],[-7.195,33.195],[-7.955,33.195]]]},"properties":{"slug":"casablanca","n_px":3508,"halos":[{"type":"Polygon","coordinates":[[[-7.967,33.183],[-7.967,33.487],[-7.937,33.487],[-7.937,33.587],[-7.737,33.587],[-7.737,33.637],[-7.537,33.637],[-7.537,33.687],[-7.437,33.687],[-7.437,33.737],[-7.337,33.737],[-7.337,33.787],[-7.287,33.787],[-7.287,33.837],[-7.183,33.837],[-7.183,33.183],[-7.967,33.183]]]},{"type":"Polygon","coordinates":[[[-7.985,33.165],[-7.985,33.505],[-7.955,33.505],[-7.955,33.605],[-7.755,33.605],[-7.755,33.655],[-7.555,33.655],[-7.555,33.705],[-7.455,33.705],[-7.455,33.755],[-7.355,33.755],[-7.355,33.805],[-7.305,33.805],[-7.305,33.855],[-7.165,33.855],[-7.165,33.165],[-7.985,33.165]]]},{"type":"Polygon","coordinates":[[[-8.02,33.13],[-8.02,33.54],[-7.99,33.54],[-7.99,33.64],[-7.79,33.64],[-7.79,33.69],[-7.59,33.69],[-7.59,33.74],[-7.49,33.74],[-7.49,33.79],[-7.39,33.79],[-7.39,33.84],[-7.34,33.84],[-7.34,33.89],[-7.13,33.89],[-7.13,33.13],[-8.02,33.13]]]},{"type":"Polygon","coordinates":[[[-8.08,33.07],[-8.08,33.6],[-8.05,33.6],[-8.05,33.7],[-7.85,33.7],[-7.85,33.75],[-7.65,33.75],[-7.65,33.8],[-7.55,33.8],[-7.55,33.85],[-7.45,33.85],[-7.45,33.9],[-7.4,33.9],[-7.4,33.95],[-7.07,33.95],[-7.07,33.07],[-8.08,33.07]]]}]}},{"type":"Feature","geometry":{"type":"MultiPolygon","coordinates":[[[[28.595,40.975],[28.595,41.355],[28.725,41.355],[28.725,41.325],[28.825,41.325],[28.825,41.275],[29.125,41.275],[29.125,41.175],[29.175,41.175],[29.175,41.225],[29.225,41.225],[29.225,41.275],[29.275,41.275],[29.275,41.225],[29.455,41.225],[29.455,41.075],[29.325,41.075],[29.325,40.975],[29.375,40.975],[29.375,41.025],[29.455,41.025],[29.455,40.795],[29.325,40.795],[29.325,40.875],[29.175,40.875],[29.175,40.925],[29.125,40.925],[29.125,40.975],[29.075,40.975],[29.075,41.075],[28.975,41.075],[28.975,41.025],[28.925,41.025],[28.925,40.975],[28.595,40.975]]],[[[28.975,41.025],[29.025,41.025],[29.025,40.975],[28.975,40.975],[28.975,41.025]]]]},"properties":{"slug":"istanbul","n_px":2788,"halos":[{"type":"Polygon","coordinates":[[[28.583,40.963],[28.583,41.367],[28.737,41.367],[28.737,41.337],[28.837,41.337],[28.837,41.287],[29.137,41.287],[29.137,41.187],[29.163,41.187],[29.163,41.237],[29.213,41.237],[29.213,41.287],[29.287,41.287],[29.287,41.237],[29.467,41.237],[29.467,41.063],[29.337,41.063],[29.337,40.987],[29.363,40.987],[29.363,41.037],[29.467,41.037],[29.467,40.783],[29.313,40.783],[29.313,40.863],[29.163,40.863],[29.163,40.913],[29.113,40.913],[29.113,40.963],[29.063,40.963],[29.063,41.063],[28.987,41.063],[28.987,41.037],[29.037,41.037],[29.037,40.963],[28.963,40.963],[28.963,41.013],[28.937,41.013],[28.937,40.963],[28.583,40.963]]]},{"type":"Polygon","coordinates":[[[28.565,40.945],[28.565,41.385],[28.755,41.385],[28.755,41.355],[28.855,41.355],[28.855,41.305],[29.155,41.305],[29.155,41.255],[29.195,41.255],[29.195,41.305],[29.305,41.305],[29.305,41.255],[29.485,41.255],[29.485,40.765],[29.295,40.765],[29.295,40.845],[29.145,40.845],[29.145,40.895],[29.095,40.895],[29.095,40.945],[28.565,40.945]]]},{"type":"Polygon","coordinates":[[[28.53,40.91],[28.53,41.42],[28.79,41.42],[28.79,41.39],[28.89,41.39],[28.89,41.34],[29.34,41.34],[29.34,41.29],[29.52,41.29],[29.52,40.73],[29.26,40.73],[29.26,40.81],[29.11,40.81],[29.11,40.86],[29.06,40.86],[29.06,40.91],[28.53,40.91]]]},{"type":"Polygon","coordinates":[[[28.47,40.85],[28.47,41.48],[28.85,41.48],[28.85,41.45],[28.95,41.45],[28.95,41.4],[29.4,41.4],[29.4,41.35],[29.58,41.35],[29.58,40.67],[29.2,40.67],[29.2,40.75],[29.05,40.75],[29.05,40.8],[29.0,40.8],[29.0,40.85],[28.47,40.85]]]}]}}]}